[{"OBJECT_NAME":"JILIN-1 07","OBJECT_ID":"2018-008E","EPOCH":"2026-03-09T22:24:26.445888","MEAN_MOTION":15.32987507,"ECCENTRICITY":0.00101791,"INCLINATION":97.1876,"RA_OF_ASC_NODE":91.5817,"ARG_OF_PERICENTER":62.7832,"MEAN_ANOMALY":297.4447,"EPHEMERIS_TYPE":0,"CLASSIFICATION_TYPE":"U","NORAD_CAT_ID":43159,"ELEMENT_SET_NO":999,"REV_AT_EPOCH":44978,"BSTAR":0.00036439521,"MEAN_MOTION_DOT":0.00011559,"MEAN_MOTION_DDOT":0},{"OBJECT_NAME":"STARLINK-35262","OBJECT_ID":"2025-221AA","EPOCH":"2026-03-09T11:19:58.938816","MEAN_MOTION":15.3020959,"ECCENTRICITY":0.00011967,"INCLINATION":53.1584,"RA_OF_ASC_NODE":89.8108,"ARG_OF_PERICENTER":64.2254,"MEAN_ANOMALY":295.887,"EPHEMERIS_TYPE":0,"CLASSIFICATION_TYPE":"U","NORAD_CAT_ID":65847,"ELEMENT_SET_NO":999,"REV_AT_EPOCH":2604,"BSTAR":0.00075207956,"MEAN_MOTION_DOT":0.00021988,"MEAN_MOTION_DDOT":0}]
